[{"OBJECT_NAME":"GNOMES-5","OBJECT_ID":"2024-149DL","EPOCH":"2026-03-09T22:53:01.372704","MEAN_MOTION":15.00280005,"ECCENTRICITY":0.00076217,"INCLINATION":97.6857,"RA_OF_ASC_NODE":148.0235,"ARG_OF_PERICENTER":89.6268,"MEAN_ANOMALY":270.5829,"EPHEMERIS_TYPE":0,"CLASSIFICATION_TYPE":"U","NORAD_CAT_ID":60574,"ELEMENT_SET_NO":999,"REV_AT_EPOCH":8527,"BSTAR":0.00047414566,"MEAN_MOTION_DOT":5.885e-5,"MEAN_MOTION_DDOT":0},{"OBJECT_NAME":"STARLINK-33987","OBJECT_ID":"2025-094K","EPOCH":"2026-03-09T21:13:28.140672","MEAN_MOTION":14.98338803,"ECCENTRICITY":0.00031592,"INCLINATION":70.0016,"RA_OF_ASC_NODE":233.9125,"ARG_OF_PERICENTER":275.9002,"MEAN_ANOMALY":84.1796,"EPHEMERIS_TYPE":0,"CLASSIFICATION_TYPE":"U","NORAD_CAT_ID":63873,"ELEMENT_SET_NO":999,"REV_AT_EPOCH":4723,"BSTAR":0.00073663621,"MEAN_MOTION_DOT":8.709e-5,"MEAN_MOTION_DDOT":0}]
